start=new Date('2022-04-29T00:00:00.000Z').valueOf();
sats=[{"APOAPSIS":"548.285","MEAN_MOTION":"15.06408755","OBJECT_ID":"2021-041AS","EPOCH":"2022-04-28T09:17:07.213920","DECAY_DATE":null,"SITE":"AFETR","RCS_SIZE":"LARGE","LAUNCH_DATE":"2021-05-15","MEAN_ELEMENT_THEORY":"SGP4","TLE_LINE2":"2 48593  53.0550 357.2153 0001586  72.7138 287.4025 15.06408755 52346","OBJECT_NAME":"STARLINK-2250","NORAD_CAT_ID":"48593","MEAN_MOTION_DOT":"0.00003282","PERIOD":"95.592","SEMIMAJOR_AXIS":"6925.322","RA_OF_ASC_NODE":"357.2153","REV_AT_EPOCH":"5234","INCLINATION":"53.0550","GP_ID":"202216661","ECCENTRICITY":"0.00015860","ELEMENT_SET_NO":"999","ARG_OF_PERICENTER":"72.7138","MEAN_MOTION_DDOT":"0.0000000000000","BSTAR":"0.00023909000000","CLASSIFICATION_TYPE":"U","CENTER_NAME":"EARTH","REF_FRAME":"TEME","MEAN_ANOMALY":"287.4025","OBJECT_TYPE":"PAYLOAD","COUNTRY_CODE":"US","FILE":"3420061","PERIAPSIS":"546.088","TIME_SYSTEM":"UTC","EPHEMERIS_TYPE":"0","TLE_LINE1":"1 48593U 21041AS  22118.38688905  .00003282  00000-0  23909-3 0  9999"},{"MEAN_ANOMALY":"149.3201","OBJECT_TYPE":"PAYLOAD","COUNTRY_CODE":"US","TIME_SYSTEM":"UTC","PERIAPSIS":"546.254","FILE":"3420389","TLE_LINE1":"1 48594U 21041AT  22118.91668981  .00015924  00000-0  10860-2 0  9998","EPHEMERIS_TYPE":"0","MEAN_ELEMENT_THEORY":"SGP4","LAUNCH_DATE":"2021-05-15","TLE_LINE2":"2 48594  53.0550 324.8205 0001463  95.6619 149.3201 15.06382539 53295","OBJECT_NAME":"STARLINK-2251","APOAPSIS":"548.280","MEAN_MOTION":"15.06382539","OBJECT_ID":"2021-041AT","DECAY_DATE":null,"SITE":"AFETR","EPOCH":"2022-04-28T22:00:01.999584","RCS_SIZE":"LARGE","ELEMENT_SET_NO":"999","ECCENTRICITY":"0.00014630","GP_ID":"202227591","ARG_OF_PERICENTER":"95.6619","BSTAR":"0.00108600000000","MEAN_MOTION_DDOT":"0.0000000000000","CENTER_NAME":"EARTH","REF_FRAME":"TEME","CLASSIFICATION_TYPE":"U","MEAN_MOTION_DOT":"0.00015924","NORAD_CAT_ID":"48594","SEMIMAJOR_AXIS":"6925.402","PERIOD":"95.593","INCLINATION":"53.0550","REV_AT_EPOCH":"5329","RA_OF_ASC_NODE":"324.8205"},{"TLE_LINE1":"1 48595U 21041AU  22118.36846299  .00004668  00000-0  33197-3 0  9990","EPHEMERIS_TYPE":"0","FILE":"3420061","PERIAPSIS":"546.130","TIME_SYSTEM":"UTC","OBJECT_TYPE":"PAYLOAD","MEAN_ANOMALY":"284.0808","COUNTRY_CODE":"US","MEAN_MOTION_DDOT":"0.0000000000000","BSTAR":"0.00033197000000","CLASSIFICATION_TYPE":"U","CENTER_NAME":"EARTH","REF_FRAME":"TEME","GP_ID":"202218161","ECCENTRICITY":"0.00015240","ELEMENT_SET_NO":"999","ARG_OF_PERICENTER":"76.0350","RA_OF_ASC_NODE":"357.2907","INCLINATION":"53.0554","REV_AT_EPOCH":"5361","NORAD_CAT_ID":"48595","MEAN_MOTION_DOT":"0.00004668","PERIOD":"95.592","SEMIMAJOR_AXIS":"6925.320","TLE_LINE2":"2 48595  53.0554 357.2907 0001524  76.0350 284.0808 15.06409225 53610","OBJECT_NAME":"STARLINK-2252","LAUNCH_DATE":"2021-05-15","MEAN_ELEMENT_THEORY":"SGP4","EPOCH":"2022-04-28T08:50:35.202336","SITE":"AFETR","DECAY_DATE":null,"RCS_SIZE":"LARGE","APOAPSIS":"548.241","OBJECT_ID":"2021-041AU","MEAN_MOTION":"15.06409225"},{"TLE_LINE1":"1 48596U 21041AV  22118.39057754  .00004065  00000-0  29157-3 0  9996","EPHEMERIS_TYPE":"0","COUNTRY_CODE":"US","MEAN_ANOMALY":"298.3912","OBJECT_TYPE":"PAYLOAD","FILE":"3420061","TIME_SYSTEM":"UTC","PERIAPSIS":"545.978","ARG_OF_PERICENTER":"61.7252","GP_ID":"202216411","ECCENTRICITY":"0.00017340","ELEMENT_SET_NO":"999","CLASSIFICATION_TYPE":"U","CENTER_NAME":"EARTH","REF_FRAME":"TEME","MEAN_MOTION_DDOT":"0.0000000000000","BSTAR":"0.00029157000000","PERIOD":"95.591","SEMIMAJOR_AXIS":"6925.314","NORAD_CAT_ID":"48596","MEAN_MOTION_DOT":"0.00004065","INCLINATION":"53.0552","REV_AT_EPOCH":"5280","RA_OF_ASC_NODE":"357.1993","LAUNCH_DATE":"2021-05-15","MEAN_ELEMENT_THEORY":"SGP4","OBJECT_NAME":"STARLINK-2253","TLE_LINE2":"2 48596  53.0552 357.1993 0001734  61.7252 298.3912 15.06411220 52800","MEAN_MOTION":"15.06411220","APOAPSIS":"548.380","OBJECT_ID":"2021-041AV","RCS_SIZE":"LARGE","EPOCH":"2022-04-28T09:22:25.899456","DECAY_DATE":null,"SITE":"AFETR"},{"SEMIMAJOR_AXIS":"6925.341","PERIOD":"95.592","MEAN_MOTION_DOT":"0.00000961","NORAD_CAT_ID":"48597","RA_OF_ASC_NODE":"357.1679","INCLINATION":"53.0550","REV_AT_EPOCH":"5361","ARG_OF_PERICENTER":"81.6980","ECCENTRICITY":"0.00013820","ELEMENT_SET_NO":"999","GP_ID":"202217162","REF_FRAME":"TEME","CENTER_NAME":"EARTH","CLASSIFICATION_TYPE":"U","BSTAR":"0.00008336500000","MEAN_MOTION_DDOT":"0.0000000000000","OBJECT_ID":"2021-041AW","APOAPSIS":"548.163","MEAN_MOTION":"15.06402354","RCS_SIZE":"LARGE","SITE":"AFETR","DECAY_DATE":null,"EPOCH":"2022-04-28T09:33:02.621664","MEAN_ELEMENT_THEORY":"SGP4","LAUNCH_DATE":"2021-05-15","OBJECT_NAME":"STARLINK-2255","TLE_LINE2":"2 48597  53.0550 357.1679 0001382  81.6980 278.4165 15.06402354 53615","EPHEMERIS_TYPE":"0","TLE_LINE1":"1 48597U 21041AW  22118.39794701  .00000961  00000-0  83365-4 0  9990","COUNTRY_CODE":"US","OBJECT_TYPE":"PAYLOAD","MEAN_ANOMALY":"278.4165","TIME_SYSTEM":"UTC","PERIAPSIS":"546.249","FILE":"3420061"},{"PERIAPSIS":"546.299","TIME_SYSTEM":"UTC","FILE":"3420061","COUNTRY_CODE":"US","OBJECT_TYPE":"PAYLOAD","MEAN_ANOMALY":"283.6912","EPHEMERIS_TYPE":"0","TLE_LINE1":"1 48598U 21041AX  22118.40163679  .00006205  00000-0  43496-3 0  9994","RCS_SIZE":"LARGE","SITE":"AFETR","DECAY_DATE":null,"EPOCH":"2022-04-28T09:38:21.418656","APOAPSIS":"548.076","MEAN_MOTION":"15.06408529","OBJECT_ID":"2021-041AX","OBJECT_NAME":"STARLINK-2256","TLE_LINE2":"2 48598  53.0555 357.1363 0001283  76.4220 283.6912 15.06408529 52808","MEAN_ELEMENT_THEORY":"SGP4","LAUNCH_DATE":"2021-05-15","RA_OF_ASC_NODE":"357.1363","INCLINATION":"53.0555","REV_AT_EPOCH":"5280","SEMIMAJOR_AXIS":"6925.322","PERIOD":"95.592","MEAN_MOTION_DOT":"0.00006205","NORAD_CAT_ID":"48598","CENTER_NAME":"EARTH","REF_FRAME":"TEME","CLASSIFICATION_TYPE":"U","BSTAR":"0.00043496000000","MEAN_MOTION_DDOT":"0.0000000000000","ARG_OF_PERICENTER":"76.4220","ELEMENT_SET_NO":"999","ECCENTRICITY":"0.00012830","GP_ID":"202217409"},{"DECAY_DATE":null,"SITE":"AFETR","EPOCH":"2022-04-28T07:05:05.548704","RCS_SIZE":"LARGE","APOAPSIS":"548.191","MEAN_MOTION":"15.06402506","OBJECT_ID":"2021-041AY","TLE_LINE2":"2 48599  53.0565 332.6110 0001422  73.8187 286.2958 15.06402506 53951","OBJECT_NAME":"STARLINK-2274","MEAN_ELEMENT_THEORY":"SGP4","LAUNCH_DATE":"2021-05-15","RA_OF_ASC_NODE":"332.6110","INCLINATION":"53.0565","REV_AT_EPOCH":"5395","MEAN_MOTION_DOT":"0.00001164","NORAD_CAT_ID":"48599","SEMIMAJOR_AXIS":"6925.341","PERIOD":"95.592","BSTAR":"0.00009705000000","MEAN_MOTION_DDOT":"0.0000000000000","REF_FRAME":"TEME","CENTER_NAME":"EARTH","CLASSIFICATION_TYPE":"U","ECCENTRICITY":"0.00014220","ELEMENT_SET_NO":"999","GP_ID":"202217661","ARG_OF_PERICENTER":"73.8187","PERIAPSIS":"546.221","TIME_SYSTEM":"UTC","FILE":"3420061","MEAN_ANOMALY":"286.2958","OBJECT_TYPE":"PAYLOAD","COUNTRY_CODE":"US","EPHEMERIS_TYPE":"0","TLE_LINE1":"1 48599U 21041AY  22118.29520311  .00001164  00000-0  97050-4 0  9997"},{"FILE":"3420061","PERIAPSIS":"546.197","TIME_SYSTEM":"UTC","OBJECT_TYPE":"PAYLOAD","MEAN_ANOMALY":"266.1510","COUNTRY_CODE":"US","TLE_LINE1":"1 48600U 21041AZ  22118.33252177  .00004173  00000-0  29876-3 0  9990","EPHEMERIS_TYPE":"0","TLE_LINE2":"2 48600  53.0557 347.4373 0001413  93.9641 266.1510 15.06412346 53749","OBJECT_NAME":"STARLINK-2275","LAUNCH_DATE":"2021-05-15","MEAN_ELEMENT_THEORY":"SGP4","EPOCH":"2022-04-28T07:58:49.880928","SITE":"AFETR","DECAY_DATE":null,"RCS_SIZE":"LARGE","MEAN_MOTION":"15.06412346","APOAPSIS":"548.154","OBJECT_ID":"2021-041AZ","MEAN_MOTION_DDOT":"0.0000000000000","BSTAR":"0.00029876000000","CLASSIFICATION_TYPE":"U","CENTER_NAME":"EARTH","REF_FRAME":"TEME","GP_ID":"202216912","ELEMENT_SET_NO":"999","ECCENTRICITY":"0.00014130","ARG_OF_PERICENTER":"93.9641","REV_AT_EPOCH":"5374","INCLINATION":"53.0557","RA_OF_ASC_NODE":"347.4373","NORAD_CAT_ID":"48600","MEAN_MOTION_DOT":"0.00004173","PERIOD":"95.591","SEMIMAJOR_AXIS":"6925.311"},{"RA_OF_ASC_NODE":"330.6780","REV_AT_EPOCH":"5401","INCLINATION":"53.0554","SEMIMAJOR_AXIS":"6925.289","PERIOD":"95.591","MEAN_MOTION_DOT":"0.00006696","NORAD_CAT_ID":"48602","CENTER_NAME":"EARTH","REF_FRAME":"TEME","CLASSIFICATION_TYPE":"U","BSTAR":"0.00046775000000","MEAN_MOTION_DDOT":"0.0000000000000","ARG_OF_PERICENTER":"69.4680","ELEMENT_SET_NO":"999","ECCENTRICITY":"0.00015220","GP_ID":"202227118","RCS_SIZE":"LARGE","SITE":"AFETR","DECAY_DATE":null,"EPOCH":"2022-04-28T17:26:05.796672","MEAN_MOTION":"15.06419460","APOAPSIS":"548.208","OBJECT_ID":"2021-041BB","OBJECT_NAME":"STARLINK-2713","TLE_LINE2":"2 48602  53.0554 330.6780 0001522  69.4680 290.6472 15.06419460 54010","MEAN_ELEMENT_THEORY":"SGP4","LAUNCH_DATE":"2021-05-15","EPHEMERIS_TYPE":"0","TLE_LINE1":"1 48602U 21041BB  22118.72645598  .00006696  00000-0  46775-3 0  9997","TIME_SYSTEM":"UTC","PERIAPSIS":"546.100","FILE":"3420347","COUNTRY_CODE":"US","MEAN_ANOMALY":"290.6472","OBJECT_TYPE":"PAYLOAD"},{"CLASSIFICATION_TYPE":"U","REF_FRAME":"TEME","CENTER_NAME":"EARTH","MEAN_MOTION_DDOT":"0.0000000000000","BSTAR":"0.00009212300000","ARG_OF_PERICENTER":"69.0943","GP_ID":"202217910","ECCENTRICITY":"0.00014680","ELEMENT_SET_NO":"999","INCLINATION":"53.0558","REV_AT_EPOCH":"5402","RA_OF_ASC_NODE":"327.5526","PERIOD":"95.592","SEMIMAJOR_AXIS":"6925.344","NORAD_CAT_ID":"48603","MEAN_MOTION_DOT":"0.00001091","OBJECT_NAME":"STARLINK-2714","TLE_LINE2":"2 48603  53.0558 327.5526 0001468  69.0943 291.0203 15.06401627 54029","LAUNCH_DATE":"2021-05-15","MEAN_ELEMENT_THEORY":"SGP4","RCS_SIZE":"LARGE","EPOCH":"2022-04-28T07:22:58.580544","DECAY_DATE":null,"SITE":"AFETR","OBJECT_ID":"2021-041BC","APOAPSIS":"548.225","MEAN_MOTION":"15.06401627","TLE_LINE1":"1 48603U 21041BC  22118.30762246  .00001091  00000-0  92123-4 0  9995","EPHEMERIS_TYPE":"0","FILE":"3420061","TIME_SYSTEM":"UTC","PERIAPSIS":"546.192","COUNTRY_CODE":"US","MEAN_ANOMALY":"291.0203","OBJECT_TYPE":"PAYLOAD"}];
